[Satellite]
VERSION=1.1
NAME=FLOCK 2P-4
NICKNAME=FLOCK 2P-4
TLE1=1 41611U 16040N   17186.23628225  .00002026  00000-0  90987-4 0  9994
TLE2=2 41611  97.4607 248.9291 0011928  29.0173 331.1723 15.22271228 57415
